COMMENT,ORIGINATOR,NORAD_CAT_ID,OBJECT_NAME,OBJECT_TYPE,CLASSIFICATION_TYPE,INTLDES,EPOCH,EPOCH_MICROSECONDS,MEAN_MOTION,ECCENTRICITY,INCLINATION,RA_OF_ASC_NODE,ARG_OF_PERICENTER,MEAN_ANOMALY,EPHEMERIS_TYPE,ELEMENT_SET_NO,REV_AT_EPOCH,BSTAR,MEAN_MOTION_DOT,MEAN_MOTION_DDOT,FILE,TLE_LINE0,TLE_LINE1,TLE_LINE2,OBJECT_ID,OBJECT_NUMBER,SEMIMAJOR_AXIS,PERIOD,APOGEE,PERIGEE,DECAYED
GENERATED VIA SPACETRACK.ORG API,18 SPCS,38778,ASTRA 2F,PAYLOAD,U,12051A,2024-04-03 20:43:49,547424,1.00273322,0.0001327,0.0728,252.8895,16.7208,262.2044,0,999,3306,0,1.44e-06,0,4261881,0 ASTRA 2F,1 38778U 12051A   24094.86376791  .00000144  00000-0  00000-0 0  9997,2 38778   0.0728 252.8895 0001327  16.7208 262.2044  1.00273322 33060,2012-051A,38778,42164.301,1436.075,35791.761,35780.571,0
GENERATED VIA SPACETRACK.ORG API,18 SPCS,38778,ASTRA 2F,PAYLOAD,U,12051A,2024-04-04 03:36:17,1792,1.00273455,0.0001326,0.0719,252.467,17.0203,5.7261,0,999,4222,0,1.44e-06,0,4262365,0 ASTRA 2F,1 38778U 12051A   24095.15019678  .00000144  00000-0  00000+0 0  9997,2 38778   0.0719 252.4670 0001326  17.0203   5.7261  1.00273455 42221,2012-051A,38778,42164.264,1436.073,35791.72,35780.538,0
GENERATED VIA SPACETRACK.ORG API,18 SPCS,38778,ASTRA 2F,PAYLOAD,U,12051A,2024-04-04 13:54:46,44576,1.00273611,0.0001311,0.0707,252.1359,16.9009,161.2239,0,999,3306,0,1.43e-06,0,4263133,0 ASTRA 2F,1 38778U 12051A   24095.57969959  .00000143  00000-0  00000-0 0  9999,2 38778   0.0707 252.1359 0001311  16.9009 161.2239  1.00273611 33064,2012-051A,38778,42164.22,1436.071,35791.613,35780.557,0
GENERATED VIA SPACETRACK.ORG API,18 SPCS,38778,ASTRA 2F,PAYLOAD,U,12051A,2024-04-04 20:47:10,250304,1.00273715,0.0001311,0.0701,251.9309,16.9683,264.7466,0,999,3307,0,1.42e-06,0,4263706,0 ASTRA 2F,1 38778U 12051A   24095.86609086  .00000142  00000-0  00000-0 0  9992,2 38778   0.0701 251.9309 0001311  16.9683 264.7466  1.00273715 33075,2012-051A,38778,42164.191,1436.069,35791.584,35780.528,0
GENERATED VIA SPACETRACK.ORG API,18 SPCS,38778,ASTRA 2F,PAYLOAD,U,12051A,2024-04-05 03:39:26,940096,1.00273839,0.0001303,0.0692,251.5535,16.7813,8.6651,0,999,4223,0,1.42e-06,0,4264102,0 ASTRA 2F,1 38778U 12051A   24096.15239514  .00000142  00000-0  00000+0 0  9999,2 38778   0.0692 251.5535 0001303  16.7813   8.6651  1.00273839 42231,2012-051A,38778,42164.156,1436.067,35791.515,35780.527,0
GENERATED VIA SPACETRACK.ORG API,18 SPCS,38778,ASTRA 2F,PAYLOAD,U,12051A,2024-04-05 12:14:50,472960,1.00273999,0.0001307,0.0682,251.3196,16.7156,138.1685,0,999,3307,0,1.41e-06,0,4264927,0 ASTRA 2F,1 38778U 12051A   24096.51030640  .00000141  00000-0  00000-0 0  9998,2 38778   0.0682 251.3196 0001307  16.7156 138.1685  1.00273999 33070,2012-051A,38778,42164.111,1436.065,35791.487,35780.465,0
GENERATED VIA SPACETRACK.ORG API,18 SPCS,38778,ASTRA 2F,PAYLOAD,U,12051A,2024-04-05 20:45:42,897312,1.00274156,0.0001309,0.0673,250.9946,17.2543,266.0261,0,999,3308,0,1.41e-06,0,4265532,0 ASTRA 2F,1 38778U 12051A   24096.86507983  .00000141  00000-0  00000-0 0  9995,2 38778   0.0673 250.9946 0001309  17.2543 266.0261  1.00274156 33084,2012-051A,38778,42164.067,1436.063,35791.452,35780.413,0
GENERATED VIA SPACETRACK.ORG API,18 SPCS,38778,ASTRA 2F,PAYLOAD,U,12051A,2024-04-06 03:43:06,912768,1.00274282,0.0001302,0.0664,250.5946,16.9867,11.3323,0,999,4224,0,1.41e-06,0,4265831,0 ASTRA 2F,1 38778U 12051A   24097.15494112  .00000141  00000-0  00000+0 0  9996,2 38778   0.0664 250.5946 0001302  16.9867  11.3323  1.00274282 42246,2012-051A,38778,42164.032,1436.061,35791.387,35780.407,0
GENERATED VIA SPACETRACK.ORG API,18 SPCS,38778,ASTRA 2F,PAYLOAD,U,12051A,2024-04-06 13:29:42,912672,1.00274469,0.0001303,0.0652,250.2678,16.9909,158.7106,0,999,3308,0,1.41e-06,0,4266712,0 ASTRA 2F,1 38778U 12051A   24097.56230223  .00000141  00000-0  00000-0 0  9993,2 38778   0.0652 250.2678 0001303  16.9909 158.7106  1.00274469 33084,2012-051A,38778,42163.98,1436.058,35791.339,35780.351,0
GENERATED VIA SPACETRACK.ORG API,18 SPCS,38778,ASTRA 2F,PAYLOAD,U,12051A,2024-04-06 20:15:42,924384,1.00274606,0.0001301,0.0645,250.0459,17.4551,260.2491,0,999,3309,0,1.41e-06,0,4267273,0 ASTRA 2F,1 38778U 12051A   24097.84424681  .00000141  00000-0  00000-0 0  9997,2 38778   0.0645 250.0459 0001301  17.4551 260.2491  1.00274606 33098,2012-051A,38778,42163.941,1436.057,35791.292,35780.321,0
GENERATED VIA SPACETRACK.ORG API,18 SPCS,38778,ASTRA 2F,PAYLOAD,U,12051A,2024-04-07 14:04:57,21312,1.00274961,0.0001297,0.0622,249.2298,17.2848,169.2847,0,999,3309,0,1.41e-06,0,4267861,0 ASTRA 2F,1 38778U 12051A   24098.58677108  .00000141  00000-0  00000-0 0  9993,2 38778   0.0622 249.2298 0001297  17.2848 169.2847  1.00274961 33092,2012-051A,38778,42163.842,1436.051,35791.175,35780.238,0
GENERATED VIA SPACETRACK.ORG API,18 SPCS,38778,ASTRA 2F,PAYLOAD,U,12051A,2024-04-07 20:55:42,789792,1.00266575,0.0001495,0.0614,249.0117,31.0652,258.6826,0,999,4226,0,1.41e-06,0,4268174,0 ASTRA 2F,1 38778U 12051A   24098.87202303  .00000141  00000-0  00000+0 0  9995,2 38778   0.0614 249.0117 0001495  31.0652 258.6826  1.00266575 42269,2012-051A,38778,42166.193,1436.172,35794.361,35781.754,0
GENERATED VIA SPACETRACK.ORG API,18 SPCS,38778,ASTRA 2F,PAYLOAD,U,12051A,2024-04-08 13:14:42,554688,1.00269256,0.0001576,0.0594,248.3311,34.5317,141.3105,0,999,4227,0,1.42e-06,0,4269516,0 ASTRA 2F,1 38778U 12051A   24099.55188142  .00000142  00000-0  00000+0 0  9996,2 38778   0.0594 248.3311 0001576  34.5317 141.3105  1.00269256 42278,2012-051A,38778,42165.441,1436.133,35793.951,35780.661,0
GENERATED VIA SPACETRACK.ORG API,18 SPCS,38778,ASTRA 2F,PAYLOAD,U,12051A,2024-04-08 21:14:42,563040,1.00268877,0.0001546,0.0586,248.0668,33.4241,263.0062,0,999,3311,0,1.42e-06,0,4270195,0 ASTRA 2F,1 38778U 12051A   24099.88521485  .00000142  00000-0  00000-0 0  9994,2 38778   0.0586 248.0668 0001546  33.4241 263.0062  1.00268877 33117,2012-051A,38778,42165.547,1436.139,35793.931,35780.893,0
GENERATED VIA SPACETRACK.ORG API,18 SPCS,38778,ASTRA 2F,PAYLOAD,U,12051A,2024-04-09 03:52:50,307168,1.0026905,0.0001549,0.0578,247.6115,33.2997,3.3881,0,999,3311,0,1.42e-06,0,4271457,0 ASTRA 2F,1 38778U 12051A   24100.16169337  .00000142  00000-0  00000-0 0  9992,2 38778   0.0578 247.6115 0001549  33.2997   3.3881  1.00269050 33117,2012-051A,38778,42165.499,1436.136,35793.895,35780.832,0
GENERATED VIA SPACETRACK.ORG API,18 SPCS,38778,ASTRA 2F,PAYLOAD,U,12051A,2024-04-09 19:01:42,794688,1.00269425,0.0001555,0.0561,247.0423,33.7755,231.317,0,999,4228,0,1.42e-06,0,4271822,0 ASTRA 2F,1 38778U 12051A   24100.79285642  .00000142  00000-0  00000+0 0  9998,2 38778   0.0561 247.0423 0001555  33.7755 231.3170  1.00269425 42287,2012-051A,38778,42165.394,1436.131,35793.815,35780.702,0
GENERATED VIA SPACETRACK.ORG API,18 SPCS,38778,ASTRA 2F,PAYLOAD,U,12051A,2024-04-09 20:40:42,693600,1.00269468,0.0001555,0.0559,247.0281,33.7839,256.1396,0,999,3312,0,1.42e-06,0,4271964,0 ASTRA 2F,1 38778U 12051A   24100.86160525  .00000142  00000-0  00000-0 0  9999,2 38778   0.0559 247.0281 0001555  33.7839 256.1396  1.00269468 33124,2012-051A,38778,42165.382,1436.13,35793.803,35780.69,0
GENERATED VIA SPACETRACK.ORG API,18 SPCS,38778,ASTRA 2F,PAYLOAD,U,12051A,2024-04-10 14:14:36,493152,1.00269917,0.0001564,0.0538,246.1288,34.0464,160.9668,0,999,3312,0,1.42e-06,0,4273273,0 ASTRA 2F,1 38778U 12051A   24101.59347793  .00000142  00000-0  00000-0 0  9994,2 38778   0.0538 246.1288 0001564  34.0464 160.9668  1.00269917 33129,2012-051A,38778,42165.256,1436.124,35793.715,35780.526,0
GENERATED VIA SPACETRACK.ORG API,18 SPCS,38778,ASTRA 2F,PAYLOAD,U,12051A,2024-04-10 19:23:55,129344,1.00270066,0.0001543,0.0533,246.0066,34.1843,238.4894,0,999,4229,0,1.42e-06,0,4273587,0 ASTRA 2F,1 38778U 12051A   24101.80827696  .00000142  00000-0  00000+0 0  9992,2 38778   0.0533 246.0066 0001543  34.1843 238.4894  1.00270066 42293,2012-051A,38778,42165.214,1436.122,35793.585,35780.573,0
GENERATED VIA SPACETRACK.ORG API,18 SPCS,38778,ASTRA 2F,PAYLOAD,U,12051A,2024-04-10 21:06:55,728288,1.00270115,0.0001539,0.053,245.9771,34.1596,264.3662,0,999,3313,0,1.42e-06,0,4273834,0 ASTRA 2F,1 38778U 12051A   24101.87981167  .00000142  00000-0  00000-0 0  9994,2 38778   0.0530 245.9771 0001539  34.1596 264.3662  1.00270115 33130,2012-051A,38778,42165.2,1436.121,35793.554,35780.576,0
GENERATED VIA SPACETRACK.ORG API,18 SPCS,38778,ASTRA 2F,PAYLOAD,U,12051A,2024-04-11 14:17:50,70624,1.00270572,0.0001533,0.0511,245.0129,34.6948,163.2238,0,999,3313,0,1.42e-06,0,4275078,0 ASTRA 2F,1 38778U 12051A   24102.59571841  .00000142  00000-0  00000-0 0  9998,2 38778   0.0511 245.0129 0001533  34.6948 163.2238  1.00270572 33130,2012-051A,38778,42165.072,1436.114,35793.401,35780.473,0
GENERATED VIA SPACETRACK.ORG API,18 SPCS,38778,ASTRA 2F,PAYLOAD,U,12051A,2024-04-11 19:27:05,490144,1.00270715,0.0001509,0.0507,244.8995,34.7037,240.8535,0,999,4230,0,1.42e-06,0,4275439,0 ASTRA 2F,1 38778U 12051A   24102.81048021  .00000142  00000-0  00000+0 0  9991,2 38778   0.0507 244.8995 0001509  34.7037 240.8535  1.00270715 42306,2012-051A,38778,42165.032,1436.112,35793.26,35780.534,0
GENERATED VIA SPACETRACK.ORG API,18 SPCS,38778,ASTRA 2F,PAYLOAD,U,12051A,2024-04-11 21:10:13,420992,1.00270765,0.0001508,0.0504,244.8629,34.7138,266.7333,0,999,3314,0,1.42e-06,0,4275619,0 ASTRA 2F,1 38778U 12051A   24102.88209978  .00000142  00000-0  00000-0 0  9999,2 38778   0.0504 244.8629 0001508  34.7138 266.7333  1.00270765 33148,2012-051A,38778,42165.018,1436.112,35793.241,35780.524,0
GENERATED VIA SPACETRACK.ORG API,18 SPCS,38778,ASTRA 2F,PAYLOAD,U,12051A,2024-04-12 07:36:42,765696,1.00271049,0.0001513,0.0493,244.3548,35.224,63.7811,0,999,3314,0,1.41e-06,0,4276832,0 ASTRA 2F,1 38778U 12051A   24103.31716164  .00000141  00000-0  00000-0 0  9997,2 38778   0.0493 244.3548 0001513  35.2240  63.7811  1.00271049 33148,2012-051A,38778,42164.938,1436.107,35793.183,35780.424,0
